COSMOS 2433 (720)       
1 32275U 07052A   26103.15813337 -.00000003  00000+0  00000+0 0  9998
2 32275  65.6127 318.1234 0000706 237.6646 122.3819  2.13104224143673
COSMOS 2432 (719)       
1 32276U 07052B   26100.14217593 -.00000017  00000+0  00000+0 0  9992
2 32276  65.6303 318.3510 0009558 337.0038 173.4092  2.13103429143635
COSMOS 2434 (721)       
1 32393U 07065A   26103.06557120  .00000007  00000+0  00000+0 0  9991
2 32393  64.3163 194.1110 0001901  55.3263 123.8440  2.13101475142381
COSMOS 2436 (723)       
1 32395U 07065C   26100.83864000 -.00000003  00000+0  00000+0 0  9990
2 32395  64.3248 194.2574 0017197   2.3150  41.0315  2.13100448142294
COSMOS 2456 (730)       
1 36111U 09070A   26103.07089065  .00000041  00000+0  00000+0 0  9998
2 36111  64.9743  73.1917 0006401 311.7953  29.2383  2.13103789127039
COSMOS 2457 (733)       
1 36112U 09070B   26102.92756792  .00000041  00000+0  00000+0 0  9990
2 36112  64.9597  73.0418 0001446 187.5097 171.5793  2.13101190127034
COSMOS 2460 (732)       
1 36402U 10007C   26102.95452154 -.00000001  00000+0  00000+0 0  9999
2 36402  65.4580 316.6751 0002271  53.6541 327.5058  2.13106395125345
COSMOS 2476 (744)       
1 37867U 11064A   26100.86497510  .00000046  00000+0  00000+0 0  9990
2 37867  65.2328  75.1427 0024703 242.2209 114.8432  2.13103940112327
COSMOS 2477 (745)       
1 37868U 11064B   26096.40634785  .00000011  00000+0  00000+0 0  9994
2 37868  65.2371  75.3717 0021870 243.9238 113.1674  2.13102916112223
COSMOS 2475 (743)       
1 37869U 11064C   26102.08725233  .00000048  00000+0  00000+0 0  9996
2 37869  65.2471  75.2014 0027728 255.3351  95.3627  2.13101941112355
COSMOS 2485 (747)       
1 39155U 13019A   26102.21375245  .00000050  00000+0  00000+0 0  9990
2 39155  65.3897  75.8177 0023571 235.1838 124.5917  2.13098416100875
COSMOS 2492 (754)       
1 39620U 14012A   26102.64192200 -.00000001  00000+0  00000+0 0  9993
2 39620  65.3352 316.1649 0012092 330.4628  29.5198  2.13103515 93845
COSMOS 2500 (755)       
1 40001U 14032A   26101.87401063 -.00000004  00000+0  00000+0 0  9997
2 40001  65.2708 315.9435 0005268 186.0356 174.0074  2.13106266 92040
COSMOS 2501 (702K)      
1 40315U 14075A   26099.78884244 -.00000003  00000+0  00000+0 0  9993
2 40315  63.6148 192.7387 0021541 208.8373 151.0786  2.13101607 88391
COSMOS 2514 (751)       
1 41330U 16008A   26103.05809224  .00000000  00000+0  00000+0 0  9996
2 41330  65.0596 315.2427 0009193 200.2283 159.7854  2.13102683 79233
COSMOS 2522 (752)       
1 42939U 17055A   26102.89594367  .00000006  00000+0  00000+0 0  9991
2 42939  64.0769 194.1052 0008778 235.4816 124.4679  2.13101959 66581
COSMOS 2527 (756)       
1 43508U 18053A   26102.85726513  .00000050  00000+0  00000+0 0  9998
2 43508  65.5426  76.0850 0009124 247.9229 111.9765  2.13102303 60884
COSMOS 2529 (757)       
1 43687U 18086A   26099.66934735 -.00000003  00000+0  00000+0 0  9992
2 43687  64.2933 194.9062 0009599 254.3697 105.5563  2.13102142 57829
COSMOS 2534 (758)       
1 44299U 19030A   26103.06907352  .00000007  00000+0  00000+0 0  9990
2 44299  64.3661 194.8080 0011352 277.3743 305.2203  2.13102239 53535
COSMOS 2544 (759)       
1 44850U 19088A   26103.27120267  .00000048  00000+0  00000+0 0  9996
2 44850  65.5303  75.8961 0015403 261.5462  98.2743  2.13102095 49335
COSMOS 2545 (760)       
1 45358U 20018A   26099.71258098 -.00000017  00000+0  00000+0 0  9999
2 45358  64.3962 314.8264 0007120 242.2304 117.7413  2.13102609 47203
COSMOS 2547 (705K)      
1 46805U 20075A   26102.71702877  .00000004  00000+0  00000+0 0  9999
2 46805  64.5977 194.6589 0007891 234.7022 125.2552  2.13100469 42510
COSMOS 2557 (706K)      
1 52984U 22075A   26102.88184766 -.00000005  00000+0  00000+0 0  9997
2 52984  64.3363 316.7872 0010509 283.3333  76.6003  2.13102198 29324
COSMOS 2559 (707K)      
1 54031U 22130A   26102.70132537 -.00000005  00000+0  00000+0 0  9994
2 54031  64.3092 316.8785 0011078 176.8128 183.2447  2.13101471 27296
COSMOS 2564 (761)       
1 54377U 22161A   26100.19843634 -.00000004  00000+0  00000+0 0  9998
2 54377  64.7395 194.9671 0010517 216.8890 143.0699  2.13101992 26184
COSMOS 2569 (703K)      
1 57517U 23114A   26102.55733897  .00000047  00000+0  00000+0 0  9993
2 57517  65.2665  74.8324 0012712 294.3731  65.4900  2.13103838 20866
COSMOS 2584 (704K)      
1 63130U 25042A   26101.97498104  .00000047  00000+0  00000+0 0  9997
2 63130  65.0482  75.0517 0007135 238.5063 121.4209  2.13103635  8638
COSMOS 2596 (708K)      
1 65590U 25206B   26100.61510043 -.00000015  00000+0  00000+0 0  9994
2 65590  64.6741 317.3390 0011998 317.3055 196.4831  2.13100606  4479
